{"type": "FeatureCollection", "features": [ {"type": "Feature", "properties": {"norad_id": 30320, "name": "FENGYUN 1C DEB", "group": "fengyun-1c-debris", "lat": 55.562082920528766, "lon": -116.29881908614485, "alt_km": 951.6633340691305, "timestamp": "2025-12-16T17:51:11.206792+00:00", "meta": {"OBJECT_NAME": "FENGYUN 1C DEB", "OBJECT_ID": "1999-025AAH", "EPOCH": "2025-12-15T17:49:26.065056", "MEAN_MOTION": 13.98556212, "ECCENTRICITY": 0.00850758, "INCLINATION": 99.1874, "RA_OF_ASC_NODE": 49.0463, "ARG_OF_PERICENTER": 286.2799, "MEAN_ANOMALY": 199.1419, "EPHEMERIS_TYPE": 0, "CLASSIFICATION_TYPE": "U", "NORAD_CAT_ID": 30320, "ELEMENT_SET_NO": 999, "REV_AT_EPOCH": 96449, "BSTAR": 0.00011397779, "MEAN_MOTION_DOT": 1.23e-06, "MEAN_MOTION_DDOT": 0}, "tle": {"line1": "1 30320U 99025AAH 25349.74266279  .00000123  00000+0  11398-3 0  9999", "line2": "2 30320  99.1874  49.0463 0085075 286.2799 199.1419 13.98556212964490"}}, "geometry": {"type": "Point", "coordinates": [-116.29881908614485, 55.562082920528766]}}, {"type": "Feature", "properties": {"norad_id": 30321, "name": "FENGYUN 1C DEB", "group": "fengyun-1c-debris", "lat": 73.59324451192745, "lon": -41.48455946292019, "alt_km": 866.7712355177619, "timestamp": "2025-12-16T17:51:11.206803+00:00", "meta": {"OBJECT_NAME": "FENGYUN 1C DEB", "OBJECT_ID": "1999-025AAJ", "EPOCH": "2025-12-15T18:37:07.140576", "MEAN_MOTION": 14.16644511, "ECCENTRICITY": 0.00600416, "INCLINATION": 98.6562, "RA_OF_ASC_NODE": 348.7296, "ARG_OF_PERICENTER": 227.9482, "MEAN_ANOMALY": 313.9734, "EPHEMERIS_TYPE": 0, "CLASSIFICATION_TYPE": "U", "NORAD_CAT_ID": 30321, "ELEMENT_SET_NO": 999, "REV_AT_EPOCH": 97586, "BSTAR": 0.00030866068, "MEAN_MOTION_DOT": 5.84e-06, "MEAN_MOTION_DDOT": 0}, "tle": {"line1": "1 30321U 99025AAJ 25349.77577709  .00000584  00000+0  30866-3 0  9998", "line2": "2 30321  98.6562 348.7296 0060041 227.9482 313.9734 14.16644511975869"}}, "geometry": {"type": "Point", "coordinates": [-41.48455946292019, 73.59324451192745]}}, {"type": "Feature", "properties": {"norad_id": 30322, "name": "FENGYUN 1C DEB", "group": "fengyun-1c-debris", "lat": -61.667731432825065, "lon": -135.95157375470825, "alt_km": 827.0037393468119, "timestamp": "2025-12-16T17:51:11.206815+00:00", "meta": {"OBJECT_NAME": "FENGYUN 1C DEB", "OBJECT_ID": "1999-025AAK", "EPOCH": "2025-12-15T13:07:06.335040", "MEAN_MOTION": 14.06110392, "ECCENTRICITY": 0.01267086, "INCLINATION": 98.3983, "RA_OF_ASC_NODE": 207.0354, "ARG_OF_PERICENTER": 245.1193, "MEAN_ANOMALY": 113.6761, "EPHEMERIS_TYPE": 0, "CLASSIFICATION_TYPE": "U", "NORAD_CAT_ID": 30322, "ELEMENT_SET_NO": 999, "REV_AT_EPOCH": 96239, "BSTAR": 0.0011096479, "MEAN_MOTION_DOT": 1.919e-05, "MEAN_MOTION_DDOT": 0}, "tle": {"line1": "1 30322U 99025AAK 25349.54660110  .00001919  00000+0  11096-2 0  9999", "line2": "2 30322  98.3983 207.0354 0126708 245.1193 113.6761 14.06110392962393"}}, "geometry": {"type": "Point", "coordinates": [-135.95157375470825, -61.667731432825065]}}, {"type": "Feature", "properties": {"norad_id": 30325, "name": "FENGYUN 1C DEB", "group": "fengyun-1c-debris", "lat": 9.094697626749358, "lon": 8.561101087570174, "alt_km": 870.891486209739, "timestamp": "2025-12-16T17:51:11.206825+00:00", "meta": {"OBJECT_NAME": "FENGYUN 1C DEB", "OBJECT_ID": "1999-025AAL", "EPOCH": "2025-12-15T19:39:19.519488", "MEAN_MOTION": 14.09105375, "ECCENTRICITY": 0.00153146, "INCLINATION": 98.7328, "RA_OF_ASC_NODE": 9.0747, "ARG_OF_PERICENTER": 243.9317, "MEAN_ANOMALY": 116.0277, "EPHEMERIS_TYPE": 0, "CLASSIFICATION_TYPE": "U", "NORAD_CAT_ID": 30325, "ELEMENT_SET_NO": 999, "REV_AT_EPOCH": 97059, "BSTAR": 5.8540194e-05, "MEAN_MOTION_DOT": 5.9e-07, "MEAN_MOTION_DDOT": 0}, "tle": {"line1": "1 30325U 99025AAL 25349.81897592  .00000059  00000+0  58540-4 0  9999", "line2": "2 30325  98.7328   9.0747 0015314 243.9317 116.0277 14.09105375970591"}}, "geometry": {"type": "Point", "coordinates": [8.561101087570174, 9.094697626749358]}}, {"type": "Feature", "properties": {"norad_id": 30326, "name": "FENGYUN 1C DEB", "group": "fengyun-1c-debris", "lat": -47.288286585270804, "lon": -112.74779407961184, "alt_km": 910.3201919921621, "timestamp": "2025-12-16T17:51:11.206835+00:00", "meta": {"OBJECT_NAME": "FENGYUN 1C DEB", "OBJECT_ID": "1999-025AAM", "EPOCH": "2025-12-15T03:56:59.517600", "MEAN_MOTION": 13.85476323, "ECCENTRICITY": 0.01422935, "INCLINATION": 98.6541, "RA_OF_ASC_NODE": 236.2978, "ARG_OF_PERICENTER": 23.9903, "MEAN_ANOMALY": 336.7799, "EPHEMERIS_TYPE": 0, "CLASSIFICATION_TYPE": "U", "NORAD_CAT_ID": 30326, "ELEMENT_SET_NO": 999, "REV_AT_EPOCH": 95489, "BSTAR": 0.0002094418, "MEAN_MOTION_DOT": 2.19e-06, "MEAN_MOTION_DDOT": 0}, "tle": {"line1": "1 30326U 99025AAM 25349.16457775  .00000219  00000+0  20944-3 0  9997", "line2": "2 30326  98.6541 236.2978 0142293  23.9903 336.7799 13.85476323954894"}}, "geometry": {"type": "Point", "coordinates": [-112.74779407961184, -47.288286585270804]}}, {"type": "Feature", "properties": {"norad_id": 30327, "name": "FENGYUN 1C DEB", "group": "fengyun-1c-debris", "lat": -65.10005437803697, "lon": -96.47796983131838, "alt_km": 919.5655240770948, "timestamp": "2025-12-16T17:51:11.206845+00:00", "meta": {"OBJECT_NAME": "FENGYUN 1C DEB", "OBJECT_ID": "1999-025AAN", "EPOCH": "2025-12-13T15:48:01.550592", "MEAN_MOTION": 14.17992989, "ECCENTRICITY": 0.01170502, "INCLINATION": 98.4436, "RA_OF_ASC_NODE": 241.9237, "ARG_OF_PERICENTER": 140.1805, "MEAN_ANOMALY": 250.821, "EPHEMERIS_TYPE": 0, "CLASSIFICATION_TYPE": "U", "NORAD_CAT_ID": 30327, "ELEMENT_SET_NO": 999, "REV_AT_EPOCH": 96456, "BSTAR": 0.0019863903, "MEAN_MOTION_DOT": 4.314e-05, "MEAN_MOTION_DDOT": 0}, "tle": {"line1": "1 30327U 99025AAN 25347.65835128  .00004314  00000+0  19864-2 0  9990", "line2": "2 30327  98.4436 241.9237 0117050 140.1805 250.8210 14.17992989964569"}}, "geometry": {"type": "Point", "coordinates": [-96.47796983131838, -65.10005437803697]}}, {"type": "Feature", "properties": {"norad_id": 30328, "name": "FENGYUN 1C DEB", "group": "fengyun-1c-debris", "lat": 8.75378912742962, "lon": -0.6069502784920693, "alt_km": 855.5224625491355, "timestamp": "2025-12-16T17:51:11.206855+00:00", "meta": {"OBJECT_NAME": "FENGYUN 1C DEB", "OBJECT_ID": "1999-025AAP", "EPOCH": "2025-12-15T23:23:14.581248", "MEAN_MOTION": 14.12475319, "ECCENTRICITY": 0.0005914, "INCLINATION": 98.6863, "RA_OF_ASC_NODE": 359.9961, "ARG_OF_PERICENTER": 144.1496, "MEAN_ANOMALY": 274.7021, "EPHEMERIS_TYPE": 0, "CLASSIFICATION_TYPE": "U", "NORAD_CAT_ID": 30328, "ELEMENT_SET_NO": 999, "REV_AT_EPOCH": 97310, "BSTAR": 0.00014717516, "MEAN_MOTION_DOT": 2.29e-06, "MEAN_MOTION_DDOT": 0}, "tle": {"line1": "1 30328U 99025AAP 25349.97447432  .00000229  00000+0  14718-3 0  9990", "line2": "2 30328  98.6863 359.9961 0005914 144.1496 274.7021 14.12475319973108"}}, "geometry": {"type": "Point", "coordinates": [-0.6069502784920693, 8.75378912742962]}}, {"type": "Feature", "properties": {"norad_id": 30329, "name": "FENGYUN 1C DEB", "group": "fengyun-1c-debris", "lat": 51.38526248074623, "lon": -101.71025195660755, "alt_km": 842.6104468674239, "timestamp": "2025-12-16T17:51:11.206866+00:00", "meta": {"OBJECT_NAME": "FENGYUN 1C DEB", "OBJECT_ID": "1999-025AAQ", "EPOCH": "2025-12-15T17:30:22.656096", "MEAN_MOTION": 13.8674457, "ECCENTRICITY": 0.0142272, "INCLINATION": 99.2619, "RA_OF_ASC_NODE": 269.0737, "ARG_OF_PERICENTER": 27.5503, "MEAN_ANOMALY": 2.4064, "EPHEMERIS_TYPE": 0, "CLASSIFICATION_TYPE": "U", "NORAD_CAT_ID": 30329, "ELEMENT_SET_NO": 999, "REV_AT_EPOCH": 95452, "BSTAR": 0.00044336154, "MEAN_MOTION_DOT": 5.15e-06, "MEAN_MOTION_DDOT": 0}, "tle": {"line1": "1 30329U 99025AAQ 25349.72942889  .00000515  00000+0  44336-3 0  9997", "line2": "2 30329  99.2619 269.0737 0142272  27.5503   2.4064 13.86744570954525"}}, "geometry": {"type": "Point", "coordinates": [-101.71025195660755, 51.38526248074623]}}, {"type": "Feature", "properties": {"norad_id": 30330, "name": "FENGYUN 1C DEB", "group": "fengyun-1c-debris", "lat": 18.04720206162826, "lon": -20.05021257101115, "alt_km": 1081.712993435127, "timestamp": "2025-12-16T17:51:11.206876+00:00", "meta": {"OBJECT_NAME": "FENGYUN 1C DEB", "OBJECT_ID": "1999-025AAR", "EPOCH": "2025-12-15T22:55:40.842048", "MEAN_MOTION": 13.82068242, "ECCENTRICITY": 0.01876303, "INCLINATION": 98.8861, "RA_OF_ASC_NODE": 342.128, "ARG_OF_PERICENTER": 176.1068, "MEAN_ANOMALY": 241.9244, "EPHEMERIS_TYPE": 0, "CLASSIFICATION_TYPE": "U", "NORAD_CAT_ID": 30330, "ELEMENT_SET_NO": 999, "REV_AT_EPOCH": 94702, "BSTAR": 0.0011843637, "MEAN_MOTION_DOT": 1.417e-05, "MEAN_MOTION_DDOT": 0}, "tle": {"line1": "1 30330U 99025AAR 25349.95533382  .00001417  00000+0  11844-2 0  9997", "line2": "2 30330  98.8861 342.1280 0187630 176.1068 241.9244 13.82068242947029"}}, "geometry": {"type": "Point", "coordinates": [-20.05021257101115, 18.04720206162826]}}, {"type": "Feature", "properties": {"norad_id": 30331, "name": "FENGYUN 1C DEB", "group": "fengyun-1c-debris", "lat": 61.80737068241066, "lon": -137.6681697525722, "alt_km": 929.5743079355689, "timestamp": "2025-12-16T17:51:11.206910+00:00", "meta": {"OBJECT_NAME": "FENGYUN 1C DEB", "OBJECT_ID": "1999-025AAS", "EPOCH": "2025-12-15T22:57:56.157408", "MEAN_MOTION": 13.97833115, "ECCENTRICITY": 0.00961802, "INCLINATION": 98.9563, "RA_OF_ASC_NODE": 24.4545, "ARG_OF_PERICENTER": 359.1246, "MEAN_ANOMALY": 118.6396, "EPHEMERIS_TYPE": 0, "CLASSIFICATION_TYPE": "U", "NORAD_CAT_ID": 30331, "ELEMENT_SET_NO": 999, "REV_AT_EPOCH": 96164, "BSTAR": 0.00036969995, "MEAN_MOTION_DOT": 5.01e-06, "MEAN_MOTION_DDOT": 0}, "tle": {"line1": "1 30331U 99025AAS 25349.95689997  .00000501  00000+0  36970-3 0  9993", "line2": "2 30331  98.9563  24.4545 0096180 359.1246 118.6396 13.97833115961641"}}, "geometry": {"type": "Point", "coordinates": [-137.6681697525722, 61.80737068241066]}}]}